{
    "links": {
        "self": "http://www.neowsapp.com/rest/v1/neo/3670036?api_key=iIulBulltgU6a56xZRHN4H3l9WmuAYTsLGpBGhQ2"
    },
    "id": "3670036",
    "neo_reference_id": "3670036",
    "name": "(2014 HZ164)",
    "designation": "2014 HZ164",
    "nasa_jpl_url": "http://ssd.jpl.nasa.gov/sbdb.cgi?sstr=3670036",
    "absolute_magnitude_h": 23.8,
    "estimated_diameter": {
        "kilometers": {
            "estimated_diameter_min": 0.046190746,
            "estimated_diameter_max": 0.1032856481
        },
        "meters": {
            "estimated_diameter_min": 46.1907460282,
            "estimated_diameter_max": 103.2856480504
        },
        "miles": {
            "estimated_diameter_min": 0.0287015901,
            "estimated_diameter_max": 0.0641787064
        },
        "feet": {
            "estimated_diameter_min": 151.544447199,
            "estimated_diameter_max": 338.8636855496
        }
    },
    "is_potentially_hazardous_asteroid": false,
    "close_approach_data": [
        {
            "close_approach_date": "2014-04-21",
            "close_approach_date_full": "2014-Apr-21 05:42",
            "epoch_date_close_approach": 1398058920000,
            "relative_velocity": {
                "kilometers_per_second": "9.9480003348",
                "kilometers_per_hour": "35812.8012054136",
                "miles_per_hour": "22252.6819489971"
            },
            "miss_distance": {
                "astronomical": "0.067900428",
                "lunar": "26.413266492",
                "kilometers": "10157759.40088836",
                "miles": "6311739.012484968"
            },
            "orbiting_body": "Earth"
        }
    ],
    "orbital_data": {
        "orbit_id": "5",
        "orbit_determination_date": "2017-04-06 08:41:18",
        "first_observation_date": "2014-04-29",
        "last_observation_date": "2014-05-04",
        "data_arc_in_days": 5,
        "observations_used": 22,
        "orbit_uncertainty": "8",
        "minimum_orbit_intersection": ".0322649",
        "jupiter_tisserand_invariant": "3.670",
        "epoch_osculation": "2456779.5",
        "eccentricity": ".5113176137410923",
        "semi_major_axis": "1.995661182579658",
        "inclination": "3.404914305726404",
        "ascending_node_longitude": "49.96872484503043",
        "orbital_period": "1029.742510279817",
        "perihelion_distance": ".9752444688673011",
        "perihelion_argument": "122.4524143548357",
        "aphelion_distance": "3.016077896292015",
        "perihelion_time": "2456739.326652960557",
        "mean_anomaly": "14.04468086907428",
        "mean_motion": ".3496019601076538",
        "equinox": "J2000",
        "orbit_class": {
            "orbit_class_type": "APO",
            "orbit_class_description": "Near-Earth asteroid orbits which cross the Earth’s orbit similar to that of 1862 Apollo",
            "orbit_class_range": "a (semi-major axis) > 1.0 AU; q (perihelion) < 1.017 AU"
        }
    },
    "is_sentry_object": false
}